[ {"name": "STARLINK-31186", "line1": "1 59030U 24038H   26149.42900683  .00001962  00000+0  80775-4 0  9996", "line2": "2 59030  42.9979 291.2630 0000503 211.3238 148.7584 15.27585896127104"}, {"name": "STARLINK-31211", "line1": "1 59031U 24038J   26149.45713138  .00002115  00000+0  86372-4 0  9997", "line2": "2 59031  43.0022 290.6159 0001138 250.0952 109.9777 15.27580244127007"}, {"name": "STARLINK-30862", "line1": "1 59032U 24038K   26149.43932131 -.00000450  00000+0 -68489-5 0  9994", "line2": "2 59032  42.9997 280.1456 0001045 242.0940 117.9806 15.27577928127126"}, {"name": "STARLINK-31210", "line1": "1 59033U 24038L   26149.41791844  .00000168  00000+0  15611-4 0  9999", "line2": "2 59033  43.0016 287.7379 0001117 272.0080  88.0644 15.27595186127209"}, {"name": "STARLINK-31231", "line1": "1 59034U 24038M   26149.41407508  .00000026  00000+0  10461-4 0  9992", "line2": "2 59034  43.0019 287.7050 0001733 288.7300  71.3363 15.27573657127035"}, {"name": "STARLINK-31207", "line1": "1 59035U 24038N   26149.41021731  .00003615  00000+0  14079-3 0  9998", "line2": "2 59035  42.9994 287.6752 0000710 281.8065  78.2707 15.27588533127206"}, {"name": "STARLINK-31217", "line1": "1 59036U 24038P   26149.13613995  .00000129  00000+0  14206-4 0  9997", "line2": "2 59036  42.9987 194.8956 0001506 257.8013 102.2670 15.27575006128247"}, {"name": "STARLINK-31208", "line1": "1 59037U 24038Q   26148.79698701  .00000591  00000+0  30991-4 0  9999", "line2": "2 59037  43.0031 295.0936 0001125 226.3811 133.6948 15.27577990127065"}, {"name": "STARLINK-31235", "line1": "1 59038U 24038R   26149.40765220  .00001206  00000+0  53355-4 0  9993", "line2": "2 59038  42.9999 287.6562 0001190 271.3148  88.7567 15.27579966127145"}, {"name": "STARLINK-31220", "line1": "1 59039U 24038S   26149.40971792  .00004769  00000+0  18257-3 0  9995", "line2": "2 59039  42.9999 291.1170 0001419 259.9652 100.1040 15.27602002127106"}, {"name": "STARLINK-31225", "line1": "1 59040U 24038T   26149.39351904  .00003979  00000+0  15410-3 0  9992", "line2": "2 59040  43.0021 287.5135 0001026 249.6072 110.4670 15.27561746127036"}, {"name": "STARLINK-31240", "line1": "1 59041U 24038U   26149.43206840  .00012227  00000+0  45280-3 0  9990", "line2": "2 59041  43.0001 287.8398 0000842 259.0954 100.9803 15.27602849127142"}, {"name": "STARLINK-31202", "line1": "1 59042U 24038V   26149.43516056  .00057494  00000+0  20625-2 0  9994", "line2": "2 59042  43.0033 287.0109 0001597  40.7673 319.3299 15.27897990127217"}, {"name": "STARLINK-31234", "line1": "1 59043U 24038W   26149.42564205  .00000579  00000+0  30566-4 0  9992", "line2": "2 59043  43.0007 287.7930 0000870 271.2134  88.8618 15.27573976127032"}, {"name": "STARLINK-31153", "line1": "1 59044U 24038X   26149.46918522  .00034456  00000+0  12552-2 0  9996", "line2": "2 59044  43.0007 287.2565 0001809 271.1717  88.8927 15.27594520127043"}, {"name": "STARLINK-31241", "line1": "1 59045U 24038Y   26149.36410286 -.00004207  00000+0 -14338-3 0  9998", "line2": "2 59045  42.9987 288.1889 0000987 212.5835 147.4956 15.27596724127192"}, {"name": "STARLINK-31205", "line1": "1 59046U 24038Z   26149.42178672  .00000399  00000+0  24010-4 0  9991", "line2": "2 59046  43.0015 287.7626 0001290 269.0212  91.0492 15.27580364127142"}, {"name": "STARLINK-31265", "line1": "1 59074U 24041A   26149.26029028  .00001574  00000+0  66711-4 0  9998", "line2": "2 59074  43.0004 215.6926 0001362 267.2161  92.8535 15.27582261126590"}, {"name": "STARLINK-31276", "line1": "1 59075U 24041B   26149.22816623  .00000402  00000+0  24116-4 0  9992", "line2": "2 59075  43.0033 215.4579 0001204 256.9667 103.1050 15.27580099126647"}, {"name": "STARLINK-31259", "line1": "1 59076U 24041C   26149.23202179  .00004825  00000+0  18483-3 0  9991", "line2": "2 59076  43.0031 215.4880 0001485 297.0351  63.0349 15.27561460125542"}, {"name": "STARLINK-31281", "line1": "1 59077U 24041D   26149.23587539  .00002045  00000+0  83817-4 0  9994", "line2": "2 59077  43.0058 215.5186 0002073 295.6428  64.4209 15.27582689126643"}, {"name": "STARLINK-31274", "line1": "1 59078U 24041E   26149.20004225  .00002799  00000+0  11123-3 0  9994", "line2": "2 59078  42.9985 216.0955 0002463 270.3451  89.7119 15.27579225126585"}, {"name": "STARLINK-31257", "line1": "1 59079U 24041F   26149.24874764 -.00000359  00000+0 -35166-5 0  9999", "line2": "2 59079  43.0077 215.6133 0001239 278.3492  81.7219 15.27559579126590"}, {"name": "STARLINK-31292", "line1": "1 59081U 24041H   26149.23972946  .00004913  00000+0  18788-3 0  9999", "line2": "2 59081  43.0018 215.5419 0001675 272.1090  87.9570 15.27589013126587"}, {"name": "STARLINK-31286", "line1": "1 59082U 24041J   26149.24358340  .00001520  00000+0  64756-4 0  9995", "line2": "2 59082  43.0046 215.5749 0002482 273.1464  86.9104 15.27578710126672"}, {"name": "STARLINK-31252", "line1": "1 59083U 24041K   26149.36823279  .00000556  00000+0  29728-4 0  9995", "line2": "2 59083  43.0008 131.8859 0001051 267.6832  92.3899 15.27577022127613"}, {"name": "STARLINK-31261", "line1": "1 59084U 24041L   26149.27185736 -.00002141  00000+0 -68297-4 0  9993", "line2": "2 59084  42.9951 215.7681 0000730 244.3018 115.7758 15.27588546126644"}, {"name": "STARLINK-31290", "line1": "1 59085U 24041M   26149.48907786  .00000274  00000+0  19487-4 0  9994", "line2": "2 59085  42.9994 200.1212 0001290 267.6688  92.4016 15.27582802126932"}, {"name": "STARLINK-31279", "line1": "1 59086U 24041N   26149.48214751  .00001662  00000+0  69912-4 0  9998", "line2": "2 59086  43.0008 214.7747 0001277 288.6099  71.4614 15.27579000126677"}, {"name": "STARLINK-31266", "line1": "1 59087U 24041P   26149.24743995  .00003544  00000+0  13822-3 0  9999", "line2": "2 59087  43.0046 215.6014 0001676 270.3588  89.7072 15.27584760126647"}, {"name": "STARLINK-31313", "line1": "1 59088U 24041Q   26149.25000748  .00002186  00000+0  88931-4 0  9998", "line2": "2 59088  42.9961 215.6111 0001304 207.9345 152.1437 15.27583806126599"}, {"name": "STARLINK-31307", "line1": "1 59089U 24041R   26149.18076867  .00003980  00000+0  15407-3 0  9996", "line2": "2 59089  43.0026 215.9622 0001237 250.9066 109.1652 15.27581270126636"}, {"name": "STARLINK-31316", "line1": "1 59090U 24041S   26149.11881737  .00000995  00000+0  45686-4 0  9997", "line2": "2 59090  43.0043 169.6675 0001825 275.2366  84.8277 15.27576973127059"}, {"name": "STARLINK-31310", "line1": "1 59092U 24041U   26149.22702882  .00001061  00000+0  48082-4 0  9992", "line2": "2 59092  43.0108 216.3052 0001716 284.9984  75.0678 15.27576146126580"}, {"name": "STARLINK-31343", "line1": "1 59093U 24041V   26149.47572174  .00001114  00000+0  49999-4 0  9996", "line2": "2 59093  42.9997 214.7208 0001339 285.0448  75.0255 15.27580241126670"}, {"name": "STARLINK-31295", "line1": "1 59095U 24041X   26149.19233506  .00002968  00000+0  11734-3 0  9993", "line2": "2 59095  43.0042 216.0428 0001415 274.8250  85.2440 15.27583006126587"}, {"name": "STARLINK-31291", "line1": "1 59096U 24041Y   26149.25515031  .00002966  00000+0  11727-3 0  9997", "line2": "2 59096  43.0020 215.6490 0001392 266.8379  93.2313 15.27581170126594"}, {"name": "STARLINK-31312", "line1": "1 59152U 24044A   26149.52667098  .00001619  00000+0  68347-4 0  9999", "line2": "2 59152  43.0027 319.8043 0001232 272.1650  87.9060 15.27576605126541"}, {"name": "STARLINK-31308", "line1": "1 59153U 24044B   26149.48523184 -.00002655  00000+0 -86947-4 0  9991", "line2": "2 59153  43.0025 323.9053 0000984 260.7369  99.3371 15.27596343126509"}, {"name": "STARLINK-31270", "line1": "1 59154U 24044C   26148.97797201  .00002258  00000+0  91542-4 0  9992", "line2": "2 59154  43.0079  13.6835 0001549 270.0709  89.9965 15.27589797125878"}, {"name": "STARLINK-31341", "line1": "1 59155U 24044D   26148.99162125  .00000961  00000+0  44438-4 0  9997", "line2": "2 59155  43.0015  17.2346 0001379 243.0478 117.0232 15.27586341125805"}, {"name": "STARLINK-31338", "line1": "1 59156U 24044E   26149.05315891  .00001815  00000+0  75454-4 0  9997", "line2": "2 59156  42.9977  16.8385 0000386 263.2015  96.8793 15.27582832125815"}, {"name": "STARLINK-31334", "line1": "1 59157U 24044F   26149.04544228  .00007961  00000+0  29865-3 0  9997", "line2": "2 59157  42.9993  16.7792 0001943 248.5271 111.5373 15.27564509125815"}, {"name": "STARLINK-31297", "line1": "1 59158U 24044G   26149.04721080  .00002692  00000+0  10731-3 0  9999", "line2": "2 59158  43.0025  13.3462 0001798 245.6085 114.4579 15.27588956125889"}, {"name": "STARLINK-31182", "line1": "1 59159U 24044H   26149.00994668  .00001763  00000+0  73550-4 0  9997", "line2": "2 59159  43.0061  13.0708 0000796 270.8575  89.2186 15.27589012125888"}, {"name": "STARLINK-31327", "line1": "1 59160U 24044J   26149.04978758  .00009280  00000+0  34628-3 0  9999", "line2": "2 59160  43.0018  13.3681 0001386 270.8851  89.1842 15.27583896125880"}, {"name": "STARLINK-31256", "line1": "1 59161U 24044K   26149.01382477 -.00002254  00000+0 -72444-4 0  9999", "line2": "2 59161  43.0030  13.0979 0001747 276.4300  83.6353 15.27561269125880"}, {"name": "STARLINK-31272", "line1": "1 59162U 24044L   26149.01766403  .00003371  00000+0  13193-3 0  9999", "line2": "2 59162  43.0050  13.1271 0001886 265.8569  94.2067 15.27588423125850"}, {"name": "STARLINK-31278", "line1": "1 59163U 24044M   26149.02152979 -.00000971  00000+0 -25789-4 0  9998", "line2": "2 59163  43.0049  13.1542 0000629 265.1679  94.9101 15.27569379125854"}, {"name": "STARLINK-31309", "line1": "1 59164U 24044N   26148.95998582  .00001266  00000+0  55553-4 0  9996", "line2": "2 59164  43.0067  13.5486 0003498 243.9379 116.1112 15.27574594125870"}, {"name": "STARLINK-31325", "line1": "1 59165U 24044P   26148.96255777 -.00001116  00000+0 -31030-4 0  9990", "line2": "2 59165  43.0063  13.5693 0001576 262.8584  97.2089 15.27584367125848"}, {"name": "STARLINK-31342", "line1": "1 59166U 24044Q   26149.03179486  .00000884  00000+0  41619-4 0  9995", "line2": "2 59166  42.9936  13.2414 0001375 327.7621  32.3146 15.27583004125889"}]